{
  "type": "FeatureCollection",
  "features": [
    {
      "type": "Feature",
      "properties": {
        "norad_id": 36744,
        "name": "COMS 1",
        "group": "weather",
        "lat": -2.742948646565516,
        "lon": -63.179357613937434,
        "alt_km": 35782.73151409524,
        "timestamp": "2025-12-14T05:42:18.099074+00:00",
        "meta_object_name": "COMS 1",
        "meta_object_id": "2010-032A",
        "meta_epoch": "2025-12-13T15:46:14.922624",
        "meta_mean_motion": 1.00272245,
        "meta_eccentricity": 9.252e-05,
        "meta_inclination": 4.3434,
        "meta_ra_of_asc_node": 77.9886,
        "meta_arg_of_pericenter": 198.745,
        "meta_mean_anomaly": 170.5802,
        "meta_ephemeris_type": 0,
        "meta_classification_type": "U",
        "meta_norad_cat_id": 36744,
        "meta_element_set_no": 999,
        "meta_rev_at_epoch": 4923,
        "meta_bstar": 0,
        "meta_mean_motion_dot": -3.3e-06,
        "meta_mean_motion_ddot": 0,
        "tle_line1": "1 36744U 10032A   25347.65711716 -.00000330  00000+0  00000+0 0  9990",
        "tle_line2": "2 36744   4.3434  77.9886 0000925 198.7450 170.5802  1.00272245 49233"
      },
      "geometry": {
        "type": "Point",
        "coordinates": [
          -63.179357613937434,
          -2.742948646565516
        ]
      }
    },
    {
      "type": "Feature",
      "properties": {
        "norad_id": 37214,
        "name": "FENGYUN 3B",
        "group": "weather",
        "lat": 76.33749972242535,
        "lon": -111.13292561159732,
        "alt_km": 840.3234154057636,
        "timestamp": "2025-12-14T05:42:18.099087+00:00",
        "meta_object_name": "FENGYUN 3B",
        "meta_object_id": "2010-059A",
        "meta_epoch": "2025-12-13T16:21:14.471136",
        "meta_mean_motion": 14.14790276,
        "meta_eccentricity": 0.00220281,
        "meta_inclination": 98.9911,
        "meta_ra_of_asc_node": 27.665,
        "meta_arg_of_pericenter": 355.1623,
        "meta_mean_anomaly": 153.1456,
        "meta_ephemeris_type": 0,
        "meta_classification_type": "U",
        "meta_norad_cat_id": 37214,
        "meta_element_set_no": 999,
        "meta_rev_at_epoch": 78119,
        "meta_bstar": 6.8358693e-05,
        "meta_mean_motion_dot": 8.7e-07,
        "meta_mean_motion_ddot": 0,
        "tle_line1": "1 37214U 10059A   25347.68141749  .00000087  00000+0  68359-4 0  9992",
        "tle_line2": "2 37214  98.9911  27.6650 0022028 355.1623 153.1456 14.14790276781193"
      },
      "geometry": {
        "type": "Point",
        "coordinates": [
          -111.13292561159732,
          76.33749972242535
        ]
      }
    },
    {
      "type": "Feature",
      "properties": {
        "norad_id": 37849,
        "name": "SUOMI NPP",
        "group": "weather",
        "lat": -33.39451282787691,
        "lon": -68.5883804123333,
        "alt_km": 834.5299003867303,
        "timestamp": "2025-12-14T05:42:18.099098+00:00",
        "meta_object_name": "SUOMI NPP",
        "meta_object_id": "2011-061A",
        "meta_epoch": "2025-12-13T16:19:50.956032",
        "meta_mean_motion": 14.19514532,
        "meta_eccentricity": 0.00022748,
        "meta_inclination": 98.7774,
        "meta_ra_of_asc_node": 285.0135,
        "meta_arg_of_pericenter": 118.5876,
        "meta_mean_anomaly": 241.5529,
        "meta_ephemeris_type": 0,
        "meta_classification_type": "U",
        "meta_norad_cat_id": 37849,
        "meta_element_set_no": 999,
        "meta_rev_at_epoch": 73212,
        "meta_bstar": 8.98872e-05,
        "meta_mean_motion_dot": 1.45e-06,
        "meta_mean_motion_ddot": 0,
        "tle_line1": "1 37849U 11061A   25347.68045088  .00000145  00000+0  89887-4 0  9993",
        "tle_line2": "2 37849  98.7774 285.0135 0002274 118.5876 241.5529 14.19514532732128"
      },
      "geometry": {
        "type": "Point",
        "coordinates": [
          -68.5883804123333,
          -33.39451282787691
        ]
      }
    },
    {
      "type": "Feature",
      "properties": {
        "norad_id": 38552,
        "name": "METEOSAT-10 (MSG-3)",
        "group": "weather",
        "lat": 4.0404915811709685,
        "lon": 168.96693675450194,
        "alt_km": 35787.254914159384,
        "timestamp": "2025-12-14T05:42:18.099111+00:00",
        "meta_object_name": "METEOSAT-10 (MSG-3)",
        "meta_object_id": "2012-035B",
        "meta_epoch": "2025-12-13T08:18:50.272416",
        "meta_mean_motion": 1.00275206,
        "meta_eccentricity": 7.549e-05,
        "meta_inclination": 4.2305,
        "meta_ra_of_asc_node": 61.7236,
        "meta_arg_of_pericenter": 255.6128,
        "meta_mean_anomaly": 249.8383,
        "meta_ephemeris_type": 0,
        "meta_classification_type": "U",
        "meta_norad_cat_id": 38552,
        "meta_element_set_no": 999,
        "meta_rev_at_epoch": 4899,
        "meta_bstar": 0,
        "meta_mean_motion_dot": 8e-08,
        "meta_mean_motion_ddot": 0,
        "tle_line1": "1 38552U 12035B   25347.34641519  .00000008  00000+0  00000+0 0  9994",
        "tle_line2": "2 38552   4.2305  61.7236 0000754 255.6128 249.8383  1.00275206 48999"
      },
      "geometry": {
        "type": "Point",
        "coordinates": [
          168.96693675450194,
          4.0404915811709685
        ]
      }
    },
    {
      "type": "Feature",
      "properties": {
        "norad_id": 38771,
        "name": "METOP-B",
        "group": "weather",
        "lat": -8.734725264429292,
        "lon": -143.17379620289736,
        "alt_km": 823.1597282057865,
        "timestamp": "2025-12-14T05:42:18.099123+00:00",
        "meta_object_name": "METOP-B",
        "meta_object_id": "2012-049A",
        "meta_epoch": "2025-12-13T15:18:17.332704",
        "meta_mean_motion": 14.21408778,
        "meta_eccentricity": 0.00029511,
        "meta_inclination": 98.68,
        "meta_ra_of_asc_node": 37.5813,
        "meta_arg_of_pericenter": 142.1848,
        "meta_mean_anomaly": 217.9538,
        "meta_ephemeris_type": 0,
        "meta_classification_type": "U",
        "meta_norad_cat_id": 38771,
        "meta_element_set_no": 999,
        "meta_rev_at_epoch": 68690,
        "meta_bstar": 0.00011229394,
        "meta_mean_motion_dot": 2.02e-06,
        "meta_mean_motion_ddot": 0,
        "tle_line1": "1 38771U 12049A   25347.63770061  .00000202  00000+0  11229-3 0  9994",
        "tle_line2": "2 38771  98.6800  37.5813 0002951 142.1848 217.9538 14.21408778686907"
      },
      "geometry": {
        "type": "Point",
        "coordinates": [
          -143.17379620289736,
          -8.734725264429292
        ]
      }
    },
    {
      "type": "Feature",
      "properties": {
        "norad_id": 39216,
        "name": "INSAT-3D",
        "group": "weather",
        "lat": -0.807937726269765,
        "lon": -61.74685060838702,
        "alt_km": 35782.96366218508,
        "timestamp": "2025-12-14T05:42:18.099135+00:00",
        "meta_object_name": "INSAT-3D",
        "meta_object_id": "2013-038B",
        "meta_epoch": "2025-12-13T15:46:37.386624",
        "meta_mean_motion": 1.00269634,
        "meta_eccentricity": 0.00013884,
        "meta_inclination": 1.4473,
        "meta_ra_of_asc_node": 84.9848,
        "meta_arg_of_pericenter": 164.9236,
        "meta_mean_anomaly": 198.861,
        "meta_ephemeris_type": 0,
        "meta_classification_type": "U",
        "meta_norad_cat_id": 39216,
        "meta_element_set_no": 999,
        "meta_rev_at_epoch": 4522,
        "meta_bstar": 0,
        "meta_mean_motion_dot": -3.24e-06,
        "meta_mean_motion_ddot": 0,
        "tle_line1": "1 39216U 13038B   25347.65737716 -.00000324  00000+0  00000+0 0  9997",
        "tle_line2": "2 39216   1.4473  84.9848 0001388 164.9236 198.8610  1.00269634 45221"
      },
      "geometry": {
        "type": "Point",
        "coordinates": [
          -61.74685060838702,
          -0.807937726269765
        ]
      }
    },
    {
      "type": "Feature",
      "properties": {
        "norad_id": 39260,
        "name": "FENGYUN 3C",
        "group": "weather",
        "lat": 44.12692261315757,
        "lon": -42.47293011705679,
        "alt_km": 844.8383947379734,
        "timestamp": "2025-12-14T05:42:18.099166+00:00",
        "meta_object_name": "FENGYUN 3C",
        "meta_object_id": "2013-052A",
        "meta_epoch": "2025-12-13T15:55:26.023296",
        "meta_mean_motion": 14.1569669,
        "meta_eccentricity": 0.00143435,
        "meta_inclination": 98.4764,
        "meta_ra_of_asc_node": 325.2978,
        "meta_arg_of_pericenter": 193.3256,
        "meta_mean_anomaly": 166.7542,
        "meta_ephemeris_type": 0,
        "meta_classification_type": "U",
        "meta_norad_cat_id": 39260,
        "meta_element_set_no": 999,
        "meta_rev_at_epoch": 63231,
        "meta_bstar": 0.00010770121,
        "meta_mean_motion_dot": 1.7e-06,
        "meta_mean_motion_ddot": 0,
        "tle_line1": "1 39260U 13052A   25347.66349564  .00000170  00000+0  10770-3 0  9990",
        "tle_line2": "2 39260  98.4764 325.2978 0014343 193.3256 166.7542 14.15696690632313"
      },
      "geometry": {
        "type": "Point",
        "coordinates": [
          -42.47293011705679,
          44.12692261315757
        ]
      }
    }
  ]
}